{"type": "FeatureCollection", "features": [ {"type": "Feature", "properties": {"norad_id": 33841, "name": "COSMOS 2251 DEB", "group": "cosmos-2251-debris", "lat": -64.32630543463263, "lon": -121.39970371348335, "alt_km": 766.1237457323605, "timestamp": "2025-12-14T07:33:19.871786+00:00", "meta": {"OBJECT_NAME": "COSMOS 2251 DEB", "OBJECT_ID": "1993-036CJ", "EPOCH": "2025-12-13T12:23:02.055264", "MEAN_MOTION": 14.37862907, "ECCENTRICITY": 0.00205775, "INCLINATION": 74.0378, "RA_OF_ASC_NODE": 276.6126, "ARG_OF_PERICENTER": 356.8251, "MEAN_ANOMALY": 120.5418, "EPHEMERIS_TYPE": 0, "CLASSIFICATION_TYPE": "U", "NORAD_CAT_ID": 33841, "ELEMENT_SET_NO": 999, "REV_AT_EPOCH": 88125, "BSTAR": 0.00038018935, "MEAN_MOTION_DOT": 1.123e-05, "MEAN_MOTION_DDOT": 0}, "tle": {"line1": "1 33841U 93036CJ  25347.51599601  .00001123  00000+0  38019-3 0  9997", "line2": "2 33841  74.0378 276.6126 0020577 356.8251 120.5418 14.37862907881253"}}, "geometry": {"type": "Point", "coordinates": [-121.39970371348335, -64.32630543463263]}}, {"type": "Feature", "properties": {"norad_id": 33842, "name": "COSMOS 2251 DEB", "group": "cosmos-2251-debris", "lat": -30.962116337627556, "lon": 46.62022739137383, "alt_km": 767.4200905998296, "timestamp": "2025-12-14T07:33:19.871796+00:00", "meta": {"OBJECT_NAME": "COSMOS 2251 DEB", "OBJECT_ID": "1993-036CK", "EPOCH": "2025-12-13T02:16:45.782976", "MEAN_MOTION": 14.42698763, "ECCENTRICITY": 0.00473045, "INCLINATION": 74.0327, "RA_OF_ASC_NODE": 218.9925, "ARG_OF_PERICENTER": 326.2458, "MEAN_ANOMALY": 33.5688, "EPHEMERIS_TYPE": 0, "CLASSIFICATION_TYPE": "U", "NORAD_CAT_ID": 33842, "ELEMENT_SET_NO": 999, "REV_AT_EPOCH": 88342, "BSTAR": 0.00043233719, "MEAN_MOTION_DOT": 1.431e-05, "MEAN_MOTION_DDOT": 0}, "tle": {"line1": "1 33842U 93036CK  25347.09497434  .00001431  00000+0  43234-3 0  9999", "line2": "2 33842  74.0327 218.9925 0047304 326.2458  33.5688 14.42698763883427"}}, "geometry": {"type": "Point", "coordinates": [46.62022739137383, -30.962116337627556]}}, {"type": "Feature", "properties": {"norad_id": 33844, "name": "COSMOS 2251 DEB", "group": "cosmos-2251-debris", "lat": 73.84732142635228, "lon": 149.3975747229212, "alt_km": 740.4990546061108, "timestamp": "2025-12-14T07:33:19.871807+00:00", "meta": {"OBJECT_NAME": "COSMOS 2251 DEB", "OBJECT_ID": "1993-036CM", "EPOCH": "2025-12-13T14:55:25.608288", "MEAN_MOTION": 14.3371837, "ECCENTRICITY": 0.00470489, "INCLINATION": 74.067, "RA_OF_ASC_NODE": 51.1684, "ARG_OF_PERICENTER": 72.8272, "MEAN_ANOMALY": 44.255, "EPHEMERIS_TYPE": 0, "CLASSIFICATION_TYPE": "U", "NORAD_CAT_ID": 33844, "ELEMENT_SET_NO": 999, "REV_AT_EPOCH": 87738, "BSTAR": 0.00050487415, "MEAN_MOTION_DOT": 1.394e-05, "MEAN_MOTION_DDOT": 0}, "tle": {"line1": "1 33844U 93036CM  25347.62182417  .00001394  00000+0  50487-3 0  9998", "line2": "2 33844  74.0670  51.1684 0047048  72.8272  44.2550 14.33718370877384"}}, "geometry": {"type": "Point", "coordinates": [149.3975747229212, 73.84732142635228]}}, {"type": "Feature", "properties": {"norad_id": 33848, "name": "COSMOS 2251 DEB", "group": "cosmos-2251-debris", "lat": -28.95059160211941, "lon": -14.400057378248373, "alt_km": 745.4766714564839, "timestamp": "2025-12-14T07:33:19.871817+00:00", "meta": {"OBJECT_NAME": "COSMOS 2251 DEB", "OBJECT_ID": "1993-036CR", "EPOCH": "2025-12-13T12:18:26.212896", "MEAN_MOTION": 14.44071072, "ECCENTRICITY": 0.00411489, "INCLINATION": 74.0324, "RA_OF_ASC_NODE": 356.2047, "ARG_OF_PERICENTER": 51.7888, "MEAN_ANOMALY": 70.8508, "EPHEMERIS_TYPE": 0, "CLASSIFICATION_TYPE": "U", "NORAD_CAT_ID": 33848, "ELEMENT_SET_NO": 999, "REV_AT_EPOCH": 87842, "BSTAR": 0.0016065816, "MEAN_MOTION_DOT": 5.534e-05, "MEAN_MOTION_DDOT": 0}, "tle": {"line1": "1 33848U 93036CR  25347.51280339  .00005534  00000+0  16066-2 0  9996", "line2": "2 33848  74.0324 356.2047 0041148  51.7888  70.8508 14.44071072878427"}}, "geometry": {"type": "Point", "coordinates": [-14.400057378248373, -28.95059160211941]}}, {"type": "Feature", "properties": {"norad_id": 33892, "name": "COSMOS 2251 DEB", "group": "cosmos-2251-debris", "lat": 40.41574012912232, "lon": -95.14568271826683, "alt_km": 729.9908231536865, "timestamp": "2025-12-14T07:33:19.871827+00:00", "meta": {"OBJECT_NAME": "COSMOS 2251 DEB", "OBJECT_ID": "1993-036CV", "EPOCH": "2025-12-13T11:02:18.543840", "MEAN_MOTION": 14.23344177, "ECCENTRICITY": 0.01128195, "INCLINATION": 73.8026, "RA_OF_ASC_NODE": 100.7436, "ARG_OF_PERICENTER": 131.8397, "MEAN_ANOMALY": 306.7332, "EPHEMERIS_TYPE": 0, "CLASSIFICATION_TYPE": "U", "NORAD_CAT_ID": 33892, "ELEMENT_SET_NO": 999, "REV_AT_EPOCH": 86965, "BSTAR": 0.0013285528, "MEAN_MOTION_DOT": 3.191e-05, "MEAN_MOTION_DDOT": 0}, "tle": {"line1": "1 33892U 93036CV  25347.45993685  .00003191  00000+0  13286-2 0  9991", "line2": "2 33892  73.8026 100.7436 0112819 131.8397 306.7332 14.23344177869652"}}, "geometry": {"type": "Point", "coordinates": [-95.14568271826683, 40.41574012912232]}}, {"type": "Feature", "properties": {"norad_id": 33894, "name": "COSMOS 2251 DEB", "group": "cosmos-2251-debris", "lat": -3.822169029592983, "lon": 167.75835277149446, "alt_km": 1096.7805059978282, "timestamp": "2025-12-14T07:33:19.871838+00:00", "meta": {"OBJECT_NAME": "COSMOS 2251 DEB", "OBJECT_ID": "1993-036CX", "EPOCH": "2025-12-13T10:34:27.336288", "MEAN_MOTION": 13.21308039, "ECCENTRICITY": 0.0579505, "INCLINATION": 73.7676, "RA_OF_ASC_NODE": 347.9951, "ARG_OF_PERICENTER": 267.3156, "MEAN_ANOMALY": 86.1509, "EPHEMERIS_TYPE": 0, "CLASSIFICATION_TYPE": "U", "NORAD_CAT_ID": 33894, "ELEMENT_SET_NO": 999, "REV_AT_EPOCH": 80717, "BSTAR": 0.0024573462, "MEAN_MOTION_DOT": 2.426e-05, "MEAN_MOTION_DDOT": 0}, "tle": {"line1": "1 33894U 93036CX  25347.44059417  .00002426  00000+0  24573-2 0  9999", "line2": "2 33894  73.7676 347.9951 0579505 267.3156  86.1509 13.21308039807176"}}, "geometry": {"type": "Point", "coordinates": [167.75835277149446, -3.822169029592983]}}, {"type": "Feature", "properties": {"norad_id": 33896, "name": "COSMOS 2251 DEB", "group": "cosmos-2251-debris", "lat": -1.3089119992863312, "lon": -25.794609122778812, "alt_km": 908.3278807705547, "timestamp": "2025-12-14T07:33:19.871848+00:00", "meta": {"OBJECT_NAME": "COSMOS 2251 DEB", "OBJECT_ID": "1993-036CZ", "EPOCH": "2025-12-13T12:20:49.115040", "MEAN_MOTION": 14.19043166, "ECCENTRICITY": 0.01264607, "INCLINATION": 73.7665, "RA_OF_ASC_NODE": 155.2765, "ARG_OF_PERICENTER": 330.8755, "MEAN_ANOMALY": 84.0652, "EPHEMERIS_TYPE": 0, "CLASSIFICATION_TYPE": "U", "NORAD_CAT_ID": 33896, "ELEMENT_SET_NO": 999, "REV_AT_EPOCH": 86751, "BSTAR": 0.0010420005, "MEAN_MOTION_DOT": 2.33e-05, "MEAN_MOTION_DDOT": 0}, "tle": {"line1": "1 33896U 93036CZ  25347.51445735  .00002330  00000+0  10420-2 0  9991", "line2": "2 33896  73.7665 155.2765 0126460 330.8755  84.0652 14.19043166867513"}}, "geometry": {"type": "Point", "coordinates": [-25.794609122778812, -1.3089119992863312]}}, {"type": "Feature", "properties": {"norad_id": 33899, "name": "COSMOS 2251 DEB", "group": "cosmos-2251-debris", "lat": 71.13665629248602, "lon": 139.52570593519604, "alt_km": 665.0935814032455, "timestamp": "2025-12-14T07:33:19.871859+00:00", "meta": {"OBJECT_NAME": "COSMOS 2251 DEB", "OBJECT_ID": "1993-036DC", "EPOCH": "2025-12-13T17:07:59.379744", "MEAN_MOTION": 14.61204129, "ECCENTRICITY": 0.00566269, "INCLINATION": 74.0539, "RA_OF_ASC_NODE": 83.8649, "ARG_OF_PERICENTER": 146.3653, "MEAN_ANOMALY": 14.2404, "EPHEMERIS_TYPE": 0, "CLASSIFICATION_TYPE": "U", "NORAD_CAT_ID": 33899, "ELEMENT_SET_NO": 999, "REV_AT_EPOCH": 88853, "BSTAR": 0.0011683556, "MEAN_MOTION_DOT": 5.863e-05, "MEAN_MOTION_DDOT": 0}, "tle": {"line1": "1 33899U 93036DC  25347.71388171  .00005863  00000+0  11684-2 0  9993", "line2": "2 33899  74.0539  83.8649 0056626 146.3653  14.2404 14.61204129888530"}}, "geometry": {"type": "Point", "coordinates": [139.52570593519604, 71.13665629248602]}}, {"type": "Feature", "properties": {"norad_id": 33900, "name": "COSMOS 2251 DEB", "group": "cosmos-2251-debris", "lat": 71.56501729477715, "lon": 117.58039080821702, "alt_km": 669.5463886435864, "timestamp": "2025-12-14T07:33:19.871870+00:00", "meta": {"OBJECT_NAME": "COSMOS 2251 DEB", "OBJECT_ID": "1993-036DD", "EPOCH": "2025-12-13T12:02:39.588576", "MEAN_MOTION": 14.5835238, "ECCENTRICITY": 0.00467896, "INCLINATION": 74.0195, "RA_OF_ASC_NODE": 358.4111, "ARG_OF_PERICENTER": 150.3325, "MEAN_ANOMALY": 2.9666, "EPHEMERIS_TYPE": 0, "CLASSIFICATION_TYPE": "U", "NORAD_CAT_ID": 33900, "ELEMENT_SET_NO": 999, "REV_AT_EPOCH": 89047, "BSTAR": 0.00061985456, "MEAN_MOTION_DOT": 2.884e-05, "MEAN_MOTION_DDOT": 0}, "tle": {"line1": "1 33900U 93036DD  25347.50184709  .00002884  00000+0  61985-3 0  9994", "line2": "2 33900  74.0195 358.4111 0046789 150.3325   2.9666 14.58352380890475"}}, "geometry": {"type": "Point", "coordinates": [117.58039080821702, 71.56501729477715]}}, {"type": "Feature", "properties": {"norad_id": 33901, "name": "COSMOS 2251 DEB", "group": "cosmos-2251-debris", "lat": 44.37467268599948, "lon": 62.51690017450242, "alt_km": 527.5878183940649, "timestamp": "2025-12-14T07:33:19.871884+00:00", "meta": {"OBJECT_NAME": "COSMOS 2251 DEB", "OBJECT_ID": "1993-036DE", "EPOCH": "2025-12-13T13:55:43.391712", "MEAN_MOTION": 15.16088901, "ECCENTRICITY": 0.00316517, "INCLINATION": 73.7743, "RA_OF_ASC_NODE": 47.5165, "ARG_OF_PERICENTER": 179.4661, "MEAN_ANOMALY": 180.6572, "EPHEMERIS_TYPE": 0, "CLASSIFICATION_TYPE": "U", "NORAD_CAT_ID": 33901, "ELEMENT_SET_NO": 999, "REV_AT_EPOCH": 89526, "BSTAR": 0.0028650322, "MEAN_MOTION_DOT": 0.00056278, "MEAN_MOTION_DDOT": 0}, "tle": {"line1": "1 33901U 93036DE  25347.58036333  .00056278  00000+0  28650-2 0  9999", "line2": "2 33901  73.7743  47.5165 0031651 179.4661 180.6572 15.16088901895265"}}, "geometry": {"type": "Point", "coordinates": [62.51690017450242, 44.37467268599948]}}]}